GALAXY 37 (G-37)        
1 57493U 23112A   26197.17344942  .00000000  00000+0  00000+0 0  9994
2 57493   0.0184  49.9091 0001823  68.6969 110.8601  1.00271297 10831
LUDI TANCE-4 01A        
1 57624U 23120A   26197.62366856 -.00000189  00000+0  00000+0 0  9996
2 57624  15.0854 193.2374 0001538  13.4913  41.7726  1.00275602 10849
TJS-10                  
1 58204U 23169A   26197.77594424 -.00000261  00000+0  00000+0 0  9995
2 58204   2.6188  80.1357 0004084 114.6578 111.5406  1.00273410  9834
ZHONGXING-6E            
1 58253U 23172A   26195.70499280 -.00000370  00000+0  00000+0 0  9999
2 58253   0.0192  86.2131 0002698  23.7417 191.9164  1.00272476  9938
YAOGAN-41               
1 58582U 23197A   26197.50817425 -.00000370  00000+0  00000+0 0  9996
2 58582   3.0762 313.6099 0013903 201.0374  85.7267  1.00276306  9618
OVZON-3                 
1 58698U 24003A   26197.42435242  .00000041  00000+0  00000+0 0  9999
2 58698   0.0150 119.5564 0000169 198.2107 188.9354  1.00270477  7743
INSAT-3DS               
1 58990U 24033A   26197.57058682 -.00000166  00000+0  00000+0 0  9991
2 58990   0.0872 264.5015 0001112 224.2585  93.1167  1.00270836 47360
MERAH PUTIH 2           
1 58995U 24035A   26195.34489189 -.00000365  00000+0  00000+0 0  9992
2 58995   0.0215  82.0854 0001062  34.4456  52.7926  1.00270544  8864
TJS-11                  
1 59020U 24037A   26197.15018163 -.00000371  00000+0  00000+0 0  9992
2 59020   4.1617 327.4460 0001838 150.5911 342.5812  1.00273247  8879
HULIANWAN GAOGUI-01 (H*)
1 59069U 24040A   26197.56173734  .00000145  00000+0  00000+0 0  9998
2 59069   0.0742 332.6369 0001732  63.3003 134.2990  1.00275538  7628
EUTELSAT 36D            
1 59346U 24059A   26197.56217067  .00000000  00000+0  00000+0 0  9994
2 59346   0.0248  67.1953 0000075 227.7935 237.6729  1.00269077  8445
PAKSAT-MM1              
1 59915U 24104A   26194.56857404  .00000150  00000+0  00000+0 0  9995
2 59915   0.0311 143.3666 0001963 313.2921  77.6097  1.00269751  7795
ASTRA 1P (SES-24)       
1 60086U 24115A   26194.35091053  .00000118  00000+0  00000+0 0  9999
2 60086   0.0666 329.5187 0001497 236.9138 230.3347  1.00281209  7460
GOES 19                 
1 60133U 24119A   26197.54015725 -.00000259  00000+0  00000+0 0  9999
2 60133   0.0179 112.0632 0000392  92.0452 209.5199  1.00271185  7257
ZHONGXING-3A            
1 60179U 24122A   26196.79104245 -.00000324  00000+0  00000+0 0  9998
2 60179   0.0284 118.0048 0001717  49.1090 152.8803  1.00270068  7592
TURKSAT 6A              
1 60233U 24127A   26197.49211495  .00000000  00000+0  00000+0 0  9998
2 60233   0.0180 197.4119 0002957 330.3822 345.6643  1.00270204  7319
HULIANWAN GAOGUI-02 (H*)
1 60327U 24135A   26197.72793172 -.00000184  00000+0  00000+0 0  9998
2 60327   0.0471 356.6014 0006097  13.6909 339.3468  1.00274258  7795
ZHONGXING-4A            
1 60606U 24151A   26196.52995333 -.00000372  00000+0  00000+0 0  9995
2 60606   1.2426 270.4906 0000406 296.2264  35.6107  1.00267142  7039
HULIANWAN GAOGUI-03 (H*)
1 61503U 24181A   26196.82692263 -.00000251  00000+0  00000+0 0  9990
2 61503   0.0510 359.2926 0001047  93.7712  61.1711  1.00270412  7113
DSN-3 (KIRAMEKI-3)      
1 61733U 24198A   26197.58864470 -.00000261  00000+0  00000+0 0  9999
2 61733   0.0181  46.4450 0000877  91.9377 152.0105  1.00271492  6212
KOREASAT 6A             
1 61910U 24206A   26197.57807029 -.00000372  00000+0  00000+0 0  9995
2 61910   0.0174 100.4153 0000766 355.0810 163.0148  1.00269474  6132
OPTUS-X (ADS-01)        
1 62006U 24212A   26196.20183799 -.00000153  00000+0  00000+0 0  9996
2 62006   0.0135  63.8448 0002386  90.1044   8.1442  1.00270006  6040
GSAT-N2 (GSAT-20)       
1 62028U 24214A   26197.61919654 -.00000030  00000+0  00000+0 0  9999
2 62028   0.0702 261.7893 0002651 145.2463 178.2498  1.00271406  6190
SXM-9                   
1 62259U 24234A   26197.30561690 -.00000215  00000+0  00000+0 0  9991
2 62259   0.0159 347.6122 0004847 329.2208   2.1491  1.00269438  5864
TJS-12                  
1 62374U 24246A   26197.60114275 -.00000242  00000+0  00000+0 0  9998
2 62374   0.6084 302.2719 0001815  98.4305 256.6486  1.00268721  5852
NUVIEW ALPHA            
1 62455U 24252B   26196.25545237 -.00000225  00000+0  00000+0 0  9992
2 62455   0.0436  27.4031 0000983  54.2618 220.2947  1.00270943  4107
AGILA                   
1 62456U 24252C   26196.60739123 -.00000192  00000+0  00000+0 0  9994
2 62456   0.0493 128.1618 0001181 351.5480 184.5583  1.00270462  5444
NUVIEW BRAVO            
1 62457U 24252D   26196.25545237 -.00000224  00000+0  00000+0 0  9993
2 62457   0.0698 162.7343 0001502 343.8112 155.4099  1.00270612  4078
THURAYA-4               
1 62483U 25001A   26197.56381735  .00000129  00000+0  00000+0 0  9994
2 62483   0.0235  74.4084 0000189 180.7729 286.4959  1.00273201  4478
SHIJIAN-25 (SJ-25)      
1 62485U 25002A   26197.77611625 -.00000364  00000+0  00000+0 0  9996
2 62485   5.1818  60.9762 0052123 175.5524 104.5543  1.00261568  5659
TJS-14                  
1 62804U 25017A   26197.55870399  .00000105  00000+0  00000+0 0  9990
2 62804   0.7179 297.8601 0002028 308.6850 267.3814  1.00267670  5567
SPAINSAT NG I           
1 62852U 25021A   26197.56078400  .00000141  00000+0  00000+0 0  9992
2 62852   0.0184  36.2533 0000080 261.1430 227.8500  1.00270782  4280
